[{"OBJECT_NAME":"RANDEV","OBJECT_ID":"2022-065E","EPOCH":"2026-03-09T22:32:03.893280","MEAN_MOTION":14.63497049,"ECCENTRICITY":0.00074498,"INCLINATION":98.2039,"RA_OF_ASC_NODE":213.5498,"ARG_OF_PERICENTER":344.9996,"MEAN_ANOMALY":15.0984,"EPHEMERIS_TYPE":0,"CLASSIFICATION_TYPE":"U","NORAD_CAT_ID":52898,"ELEMENT_SET_NO":999,"REV_AT_EPOCH":19673,"BSTAR":0.00033412405,"MEAN_MOTION_DOT":1.684e-5,"MEAN_MOTION_DDOT":0},{"OBJECT_NAME":"TITAN 3C TRANSTAGE DEB","OBJECT_ID":"1965-082FZ","EPOCH":"2026-03-09T07:30:05.773248","MEAN_MOTION":14.58397087,"ECCENTRICITY":0.00287059,"INCLINATION":31.8758,"RA_OF_ASC_NODE":160.7771,"ARG_OF_PERICENTER":94.827,"MEAN_ANOMALY":265.5648,"EPHEMERIS_TYPE":0,"CLASSIFICATION_TYPE":"U","NORAD_CAT_ID":1915,"ELEMENT_SET_NO":999,"REV_AT_EPOCH":20083,"BSTAR":0.00012506386,"MEAN_MOTION_DOT":6.34e-6,"MEAN_MOTION_DDOT":0}]
